GPS BIIRM-8 (PRN 05)    
1 35752U 09043A   24293.08171231 -.00000061  00000+0  00000+0 0  9997
2 35752  55.7773  51.3657 0055694  75.9910  93.9993  2.00562098111181
GPS BIIF-1  (PRN 25)    
1 36585U 10022A   24292.24648241  .00000001  00000+0  00000+0 0  9991
2 36585  54.4074 233.0331 0117120  62.1914 341.9281  2.00557631105422
GPS BIIF-3  (PRN 24)    
1 38833U 12053A   24292.05120959  .00000053  00000+0  00000+0 0  9992
2 38833  53.5182 168.4497 0159247  58.0033 303.6337  2.00560348 88152
GPS BIIF-4  (PRN 27)    
1 39166U 13023A   24292.41176541 -.00000032  00000+0  00000+0 0  9996
2 39166  55.0080 293.6081 0125373  44.9461 316.0716  2.00562314 83708
GPS BIIF-5  (PRN 30)    
1 39533U 14008A   24292.40619598  .00000046  00000+0  00000+0 0  9995
2 39533  53.5674 174.0431 0072552 220.0815 139.4725  2.00549181 78066
GPS BIIF-6  (PRN 06)    
1 39741U 14026A   24292.68997078 -.00000089  00000+0  00000+0 0  9996
2 39741  56.6968 355.0839 0033258 312.8754  46.9058  2.00559324 76375
GPS BIIF-7  (PRN 09)    
1 40105U 14045A   24292.77789127  .00000041  00000+0  00000+0 0  9994
2 40105  54.9883 112.6684 0029680 116.3467 244.0004  2.00574540 73911
GPS BIIF-8  (PRN 03)    
1 40294U 14068A   24292.65544617 -.00000054  00000+0  00000+0 0  9993
2 40294  56.5278  54.4316 0054850  65.7148 294.8442  2.00567577 73046
GPS BIIF-9  (PRN 26)    
1 40534U 15013A   24292.78599921  .00000004  00000+0  00000+0 0  9997
2 40534  53.3049 229.2771 0092764  31.2731 329.2682  2.00558074 69667
GPS BIIF-10 (PRN 08)    
1 40730U 15033A   24292.94754274 -.00000032  00000+0  00000+0 0  9991
2 40730  54.4896 291.9983 0097245  20.0041 340.3779  2.00560597 67838
GPS BIIF-11 (PRN 10)    
1 41019U 15062A   24292.50941539 -.00000054  00000+0  00000+0 0  9992
2 41019  56.5067  54.2917 0099899 225.1102 134.0659  2.00562573 65662
GPS BIIF-12 (PRN 32)    
1 41328U 16007A   24292.09280305  .00000051  00000+0  00000+0 0  9992
2 41328  55.1788 113.5658 0081228 238.4482 120.8036  2.00555734 63667
GPS BIII-1  (PRN 04)    
1 43873U 18109A   24292.98019205  .00000043  00000+0  00000+0 0  9992
2 43873  55.3478 116.1339 0031318 191.8085 340.3331  2.00560714 42919
