{
  "DATA": [
    {
      "OBJECT_NAME": "GPS BIIRM-8 (PRN 05)",
      "OBJECT_ID": "2009-043A",
      "EPOCH": "2024-10-19T01:57:39.943584",
      "MEAN_MOTION": 2.00562098,
      "ECCENTRICITY": 0.0055694,
      "INCLINATION": 55.7773,
      "RA_OF_ASC_NODE": 51.3657,
      "ARG_OF_PERICENTER": 75.991,
      "MEAN_ANOMALY": 93.9993,
      "EPHEMERIS_TYPE": 0,
      "CLASSIFICATION_TYPE": "U",
      "NORAD_CAT_ID": 35752,
      "ELEMENT_SET_NO": 999,
      "REV_AT_EPOCH": 11118,
      "BSTAR": 0,
      "MEAN_MOTION_DOT": -6.1e-07,
      "MEAN_MOTION_DDOT": 0
    },
    {
      "OBJECT_NAME": "GPS BIIF-1  (PRN 25)",
      "OBJECT_ID": "2010-022A",
      "EPOCH": "2024-10-18T05:54:56.080224",
      "MEAN_MOTION": 2.00557631,
      "ECCENTRICITY": 0.011712,
      "INCLINATION": 54.4074,
      "RA_OF_ASC_NODE": 233.0331,
      "ARG_OF_PERICENTER": 62.1914,
      "MEAN_ANOMALY": 341.9281,
      "EPHEMERIS_TYPE": 0,
      "CLASSIFICATION_TYPE": "U",
      "NORAD_CAT_ID": 36585,
      "ELEMENT_SET_NO": 999,
      "REV_AT_EPOCH": 10542,
      "BSTAR": 0,
      "MEAN_MOTION_DOT": 1e-08,
      "MEAN_MOTION_DDOT": 0
    },
    {
      "OBJECT_NAME": "GPS BIIF-3  (PRN 24)",
      "OBJECT_ID": "2012-053A",
      "EPOCH": "2024-10-18T01:13:44.508576",
      "MEAN_MOTION": 2.00560348,
      "ECCENTRICITY": 0.0159247,
      "INCLINATION": 53.5182,
      "RA_OF_ASC_NODE": 168.4497,
      "ARG_OF_PERICENTER": 58.0033,
      "MEAN_ANOMALY": 303.6337,
      "EPHEMERIS_TYPE": 0,
      "CLASSIFICATION_TYPE": "U",
      "NORAD_CAT_ID": 38833,
      "ELEMENT_SET_NO": 999,
      "REV_AT_EPOCH": 8815,
      "BSTAR": 0,
      "MEAN_MOTION_DOT": 5.3e-07,
      "MEAN_MOTION_DDOT": 0
    },
    {
      "OBJECT_NAME": "GPS BIIF-4  (PRN 27)",
      "OBJECT_ID": "2013-023A",
      "EPOCH": "2024-10-18T09:52:56.531424",
      "MEAN_MOTION": 2.00562314,
      "ECCENTRICITY": 0.0125373,
      "INCLINATION": 55.008,
      "RA_OF_ASC_NODE": 293.6081,
      "ARG_OF_PERICENTER": 44.9461,
      "MEAN_ANOMALY": 316.0716,
      "EPHEMERIS_TYPE": 0,
      "CLASSIFICATION_TYPE": "U",
      "NORAD_CAT_ID": 39166,
      "ELEMENT_SET_NO": 999,
      "REV_AT_EPOCH": 8370,
      "BSTAR": 0,
      "MEAN_MOTION_DOT": -3.2e-07,
      "MEAN_MOTION_DDOT": 0
    },
    {
      "OBJECT_NAME": "GPS BIIF-5  (PRN 30)",
      "OBJECT_ID": "2014-008A",
      "EPOCH": "2024-10-18T09:44:55.332672",
      "MEAN_MOTION": 2.00549181,
      "ECCENTRICITY": 0.0072552,
      "INCLINATION": 53.5674,
      "RA_OF_ASC_NODE": 174.0431,
      "ARG_OF_PERICENTER": 220.0815,
      "MEAN_ANOMALY": 139.4725,
      "EPHEMERIS_TYPE": 0,
      "CLASSIFICATION_TYPE": "U",
      "NORAD_CAT_ID": 39533,
      "ELEMENT_SET_NO": 999,
      "REV_AT_EPOCH": 7806,
      "BSTAR": 0,
      "MEAN_MOTION_DOT": 4.6e-07,
      "MEAN_MOTION_DDOT": 0
    },
    {
      "OBJECT_NAME": "GPS BIIF-6  (PRN 06)",
      "OBJECT_ID": "2014-026A",
      "EPOCH": "2024-10-18T16:33:33.475392",
      "MEAN_MOTION": 2.00559324,
      "ECCENTRICITY": 0.0033258,
      "INCLINATION": 56.6968,
      "RA_OF_ASC_NODE": 355.0839,
      "ARG_OF_PERICENTER": 312.8754,
      "MEAN_ANOMALY": 46.9058,
      "EPHEMERIS_TYPE": 0,
      "CLASSIFICATION_TYPE": "U",
      "NORAD_CAT_ID": 39741,
      "ELEMENT_SET_NO": 999,
      "REV_AT_EPOCH": 7637,
      "BSTAR": 0,
      "MEAN_MOTION_DOT": -8.9e-07,
      "MEAN_MOTION_DDOT": 0
    },
    {
      "OBJECT_NAME": "GPS BIIF-7  (PRN 09)",
      "OBJECT_ID": "2014-045A",
      "EPOCH": "2024-10-18T18:40:09.805728",
      "MEAN_MOTION": 2.0057454,
      "ECCENTRICITY": 0.002968,
      "INCLINATION": 54.9883,
      "RA_OF_ASC_NODE": 112.6684,
      "ARG_OF_PERICENTER": 116.3467,
      "MEAN_ANOMALY": 244.0004,
      "EPHEMERIS_TYPE": 0,
      "CLASSIFICATION_TYPE": "U",
      "NORAD_CAT_ID": 40105,
      "ELEMENT_SET_NO": 999,
      "REV_AT_EPOCH": 7391,
      "BSTAR": 0,
      "MEAN_MOTION_DOT": 4.1e-07,
      "MEAN_MOTION_DDOT": 0
    },
    {
      "OBJECT_NAME": "GPS BIIF-8  (PRN 03)",
      "OBJECT_ID": "2014-068A",
      "EPOCH": "2024-10-18T15:43:50.549088",
      "MEAN_MOTION": 2.00567577,
      "ECCENTRICITY": 0.005485,
      "INCLINATION": 56.5278,
      "RA_OF_ASC_NODE": 54.4316,
      "ARG_OF_PERICENTER": 65.7148,
      "MEAN_ANOMALY": 294.8442,
      "EPHEMERIS_TYPE": 0,
      "CLASSIFICATION_TYPE": "U",
      "NORAD_CAT_ID": 40294,
      "ELEMENT_SET_NO": 999,
      "REV_AT_EPOCH": 7304,
      "BSTAR": 0,
      "MEAN_MOTION_DOT": -5.4e-07,
      "MEAN_MOTION_DDOT": 0
    },
    {
      "OBJECT_NAME": "GPS BIIF-9  (PRN 26)",
      "OBJECT_ID": "2015-013A",
      "EPOCH": "2024-10-18T18:51:50.331744",
      "MEAN_MOTION": 2.00558074,
      "ECCENTRICITY": 0.0092764,
      "INCLINATION": 53.3049,
      "RA_OF_ASC_NODE": 229.2771,
      "ARG_OF_PERICENTER": 31.2731,
      "MEAN_ANOMALY": 329.2682,
      "EPHEMERIS_TYPE": 0,
      "CLASSIFICATION_TYPE": "U",
      "NORAD_CAT_ID": 40534,
      "ELEMENT_SET_NO": 999,
      "REV_AT_EPOCH": 6966,
      "BSTAR": 0,
      "MEAN_MOTION_DOT": 4e-08,
      "MEAN_MOTION_DDOT": 0
    },
    {
      "OBJECT_NAME": "GPS BIIF-10 (PRN 08)",
      "OBJECT_ID": "2015-033A",
      "EPOCH": "2024-10-18T22:44:27.692736",
      "MEAN_MOTION": 2.00560597,
      "ECCENTRICITY": 0.0097245,
      "INCLINATION": 54.4896,
      "RA_OF_ASC_NODE": 291.9983,
      "ARG_OF_PERICENTER": 20.0041,
      "MEAN_ANOMALY": 340.3779,
      "EPHEMERIS_TYPE": 0,
      "CLASSIFICATION_TYPE": "U",
      "NORAD_CAT_ID": 40730,
      "ELEMENT_SET_NO": 999,
      "REV_AT_EPOCH": 6783,
      "BSTAR": 0,
      "MEAN_MOTION_DOT": -3.2e-07,
      "MEAN_MOTION_DDOT": 0
    },
    {
      "OBJECT_NAME": "GPS BIIF-11 (PRN 10)",
      "OBJECT_ID": "2015-062A",
      "EPOCH": "2024-10-18T12:13:33.489696",
      "MEAN_MOTION": 2.00562573,
      "ECCENTRICITY": 0.0099899,
      "INCLINATION": 56.5067,
      "RA_OF_ASC_NODE": 54.2917,
      "ARG_OF_PERICENTER": 225.1102,
      "MEAN_ANOMALY": 134.0659,
      "EPHEMERIS_TYPE": 0,
      "CLASSIFICATION_TYPE": "U",
      "NORAD_CAT_ID": 41019,
      "ELEMENT_SET_NO": 999,
      "REV_AT_EPOCH": 6566,
      "BSTAR": 0,
      "MEAN_MOTION_DOT": -5.4e-07,
      "MEAN_MOTION_DDOT": 0
    },
    {
      "OBJECT_NAME": "GPS BIIF-12 (PRN 32)",
      "OBJECT_ID": "2016-007A",
      "EPOCH": "2024-10-18T02:13:38.183520",
      "MEAN_MOTION": 2.00555734,
      "ECCENTRICITY": 0.0081228,
      "INCLINATION": 55.1788,
      "RA_OF_ASC_NODE": 113.5658,
      "ARG_OF_PERICENTER": 238.4482,
      "MEAN_ANOMALY": 120.8036,
      "EPHEMERIS_TYPE": 0,
      "CLASSIFICATION_TYPE": "U",
      "NORAD_CAT_ID": 41328,
      "ELEMENT_SET_NO": 999,
      "REV_AT_EPOCH": 6366,
      "BSTAR": 0,
      "MEAN_MOTION_DOT": 5.1e-07,
      "MEAN_MOTION_DDOT": 0
    },
    {
      "OBJECT_NAME": "GPS BIII-1  (PRN 04)",
      "OBJECT_ID": "2018-109A",
      "EPOCH": "2024-10-18T23:31:28.593120",
      "MEAN_MOTION": 2.00560714,
      "ECCENTRICITY": 0.0031318,
      "INCLINATION": 55.3478,
      "RA_OF_ASC_NODE": 116.1339,
      "ARG_OF_PERICENTER": 191.8085,
      "MEAN_ANOMALY": 340.3331,
      "EPHEMERIS_TYPE": 0,
      "CLASSIFICATION_TYPE": "U",
      "NORAD_CAT_ID": 43873,
      "ELEMENT_SET_NO": 999,
      "REV_AT_EPOCH": 4291,
      "BSTAR": 0,
      "MEAN_MOTION_DOT": 4.3e-07,
      "MEAN_MOTION_DDOT": 0
    }
  ]
}